{"type": "FeatureCollection", "features": [ {"type": "Feature", "properties": {"norad_id": 66909, "name": "SILVERSAT", "group": "last-30-days", "lat": 40.67633890228584, "lon": -165.4117285390051, "alt_km": 410.55383143994277, "timestamp": "2025-12-10T20:49:51.346231+00:00", "meta": {"OBJECT_NAME": "SILVERSAT", "OBJECT_ID": "1998-067XV", "EPOCH": "2025-12-10T14:24:17.076960", "MEAN_MOTION": 15.51201749, "ECCENTRICITY": 0.00046642, "INCLINATION": 51.6305, "RA_OF_ASC_NODE": 153.0034, "ARG_OF_PERICENTER": 216.0058, "MEAN_ANOMALY": 144.0618, "EPHEMERIS_TYPE": 0, "CLASSIFICATION_TYPE": "U", "NORAD_CAT_ID": 66909, "ELEMENT_SET_NO": 999, "REV_AT_EPOCH": 128, "BSTAR": 0.0015461783, "MEAN_MOTION_DOT": 0.00092744, "MEAN_MOTION_DDOT": 0}, "tle": {"line1": "1 66909U 98067XV  25344.60019765  .00092744  00000+0  15462-2 0  9997", "line2": "2 66909  51.6305 153.0034 0004664 216.0058 144.0618 15.51201749  1280"}}, "geometry": {"type": "Point", "coordinates": [-165.4117285390051, 40.67633890228584]}}, {"type": "Feature", "properties": {"norad_id": 66910, "name": "1998-067XW", "group": "last-30-days", "lat": 44.60005268544916, "lon": -156.95956393609598, "alt_km": 409.1475365313081, "timestamp": "2025-12-10T20:49:51.346241+00:00", "meta": {"OBJECT_NAME": "1998-067XW", "OBJECT_ID": "1998-067XW", "EPOCH": "2025-12-10T11:16:54.563808", "MEAN_MOTION": 15.51350337, "ECCENTRICITY": 0.00055419, "INCLINATION": 51.6299, "RA_OF_ASC_NODE": 153.6351, "ARG_OF_PERICENTER": 197.1967, "MEAN_ANOMALY": 162.8836, "EPHEMERIS_TYPE": 0, "CLASSIFICATION_TYPE": "U", "NORAD_CAT_ID": 66910, "ELEMENT_SET_NO": 999, "REV_AT_EPOCH": 126, "BSTAR": 0.0013818348, "MEAN_MOTION_DOT": 0.00083191, "MEAN_MOTION_DDOT": 0}, "tle": {"line1": "1 66910U 98067XW  25344.47007597  .00083191  00000+0  13818-2 0  9993", "line2": "2 66910  51.6299 153.6351 0005541 197.1967 162.8836 15.51350337  1261"}}, "geometry": {"type": "Point", "coordinates": [-156.95956393609598, 44.60005268544916]}}, {"type": "Feature", "properties": {"norad_id": 66911, "name": "1998-067XX", "group": "last-30-days", "lat": 45.7476943619864, "lon": -153.93302660585866, "alt_km": 408.42158518260294, "timestamp": "2025-12-10T20:49:51.346252+00:00", "meta": {"OBJECT_NAME": "1998-067XX", "OBJECT_ID": "1998-067XX", "EPOCH": "2025-12-09T02:48:25.040736", "MEAN_MOTION": 15.51276485, "ECCENTRICITY": 0.00057034, "INCLINATION": 51.6296, "RA_OF_ASC_NODE": 160.3494, "ARG_OF_PERICENTER": 191.2268, "MEAN_ANOMALY": 168.8595, "EPHEMERIS_TYPE": 0, "CLASSIFICATION_TYPE": "U", "NORAD_CAT_ID": 66911, "ELEMENT_SET_NO": 999, "REV_AT_EPOCH": 104, "BSTAR": 0.0014245982, "MEAN_MOTION_DOT": 0.00085582, "MEAN_MOTION_DDOT": 0}, "tle": {"line1": "1 66911U 98067XX  25343.11695649  .00085582  00000+0  14246-2 0  9997", "line2": "2 66911  51.6296 160.3494 0005703 191.2268 168.8595 15.51276485  1046"}}, "geometry": {"type": "Point", "coordinates": [-153.93302660585866, 45.7476943619864]}}, {"type": "Feature", "properties": {"norad_id": 66912, "name": "1998-067XY", "group": "last-30-days", "lat": 36.91136807741198, "lon": -171.7929702776397, "alt_km": 412.4012462807368, "timestamp": "2025-12-10T20:49:51.346262+00:00", "meta": {"OBJECT_NAME": "1998-067XY", "OBJECT_ID": "1998-067XY", "EPOCH": "2025-12-10T12:53:00.237984", "MEAN_MOTION": 15.50813363, "ECCENTRICITY": 0.00047702, "INCLINATION": 51.6309, "RA_OF_ASC_NODE": 153.3305, "ARG_OF_PERICENTER": 212.0937, "MEAN_ANOMALY": 147.9763, "EPHEMERIS_TYPE": 0, "CLASSIFICATION_TYPE": "U", "NORAD_CAT_ID": 66912, "ELEMENT_SET_NO": 999, "REV_AT_EPOCH": 126, "BSTAR": 0.0011701261, "MEAN_MOTION_DOT": 0.00068898, "MEAN_MOTION_DDOT": 0}, "tle": {"line1": "1 66912U 98067XY  25344.53680831  .00068898  00000+0  11701-2 0  9996", "line2": "2 66912  51.6309 153.3305 0004770 212.0937 147.9763 15.50813363  1263"}}, "geometry": {"type": "Point", "coordinates": [-171.7929702776397, 36.91136807741198]}}, {"type": "Feature", "properties": {"norad_id": 66913, "name": "2025-284A", "group": "last-30-days", "lat": -80.32614635607227, "lon": 49.19807309047372, "alt_km": 512.4352795300401, "timestamp": "2025-12-10T20:49:51.346272+00:00", "meta": {"OBJECT_NAME": "2025-284A", "OBJECT_ID": "2025-284A", "EPOCH": "2025-12-10T14:53:51.346752", "MEAN_MOTION": 15.18900424, "ECCENTRICITY": 0.00119705, "INCLINATION": 80.4047, "RA_OF_ASC_NODE": 132.4507, "ARG_OF_PERICENTER": 210.9367, "MEAN_ANOMALY": 149.1156, "EPHEMERIS_TYPE": 0, "CLASSIFICATION_TYPE": "U", "NORAD_CAT_ID": 66913, "ELEMENT_SET_NO": 999, "REV_AT_EPOCH": 80, "BSTAR": 0.00070286152, "MEAN_MOTION_DOT": 0.00014724, "MEAN_MOTION_DDOT": 0}, "tle": {"line1": "1 66913U 25284A   25344.62073318  .00014724  00000+0  70286-3 0  9997", "line2": "2 66913  80.4047 132.4507 0011970 210.9367 149.1156 15.18900424   807"}}, "geometry": {"type": "Point", "coordinates": [49.19807309047372, -80.32614635607227]}}, {"type": "Feature", "properties": {"norad_id": 66914, "name": "2025-284B", "group": "last-30-days", "lat": -79.76920847562772, "lon": 62.54795547596261, "alt_km": 511.2966440331775, "timestamp": "2025-12-10T20:49:51.346282+00:00", "meta": {"OBJECT_NAME": "2025-284B", "OBJECT_ID": "2025-284B", "EPOCH": "2025-12-10T16:28:03.403200", "MEAN_MOTION": 15.18856041, "ECCENTRICITY": 0.00081893, "INCLINATION": 80.4057, "RA_OF_ASC_NODE": 132.3684, "ARG_OF_PERICENTER": 253.3487, "MEAN_ANOMALY": 106.6841, "EPHEMERIS_TYPE": 0, "CLASSIFICATION_TYPE": "U", "NORAD_CAT_ID": 66914, "ELEMENT_SET_NO": 999, "REV_AT_EPOCH": 81, "BSTAR": 0.00072727253, "MEAN_MOTION_DOT": 0.00015201, "MEAN_MOTION_DDOT": 0}, "tle": {"line1": "1 66914U 25284B   25344.68615050  .00015201  00000+0  72727-3 0  9992", "line2": "2 66914  80.4057 132.3684 0008189 253.3487 106.6841 15.18856041   811"}}, "geometry": {"type": "Point", "coordinates": [62.54795547596261, -79.76920847562772]}}, {"type": "Feature", "properties": {"norad_id": 66915, "name": "HULIANWANG DIGUI 14A", "group": "last-30-days", "lat": 47.72966382513399, "lon": -167.63673459, "alt_km": 873.746207948463, "timestamp": "2025-12-10T20:49:51.346292+00:00", "meta": {"OBJECT_NAME": "HULIANWANG DIGUI 14A", "OBJECT_ID": "2025-285A", "EPOCH": "2025-12-10T15:21:20.752992", "MEAN_MOTION": 14.05466409, "ECCENTRICITY": 0.00081164, "INCLINATION": 50.0035, "RA_OF_ASC_NODE": 125.8396, "ARG_OF_PERICENTER": 275.5111, "MEAN_ANOMALY": 84.4869, "EPHEMERIS_TYPE": 0, "CLASSIFICATION_TYPE": "U", "NORAD_CAT_ID": 66915, "ELEMENT_SET_NO": 999, "REV_AT_EPOCH": 61, "BSTAR": 1.5643483e-05, "MEAN_MOTION_DOT": -1.26e-06, "MEAN_MOTION_DDOT": 0}, "tle": {"line1": "1 66915U 25285A   25344.63982353 -.00000126  00000+0  15643-4 0  9998", "line2": "2 66915  50.0035 125.8396 0008116 275.5111  84.4869 14.05466409   619"}}, "geometry": {"type": "Point", "coordinates": [-167.63673459, 47.72966382513399]}}, {"type": "Feature", "properties": {"norad_id": 66916, "name": "HULIANWANG DIGUI 14B", "group": "last-30-days", "lat": 47.95575022858682, "lon": -166.51635302765015, "alt_km": 872.9446219461806, "timestamp": "2025-12-10T20:49:51.346304+00:00", "meta": {"OBJECT_NAME": "HULIANWANG DIGUI 14B", "OBJECT_ID": "2025-285B", "EPOCH": "2025-12-10T15:21:08.019360", "MEAN_MOTION": 14.05512788, "ECCENTRICITY": 0.00069666, "INCLINATION": 50.0045, "RA_OF_ASC_NODE": 125.8401, "ARG_OF_PERICENTER": 270.2213, "MEAN_ANOMALY": 89.7894, "EPHEMERIS_TYPE": 0, "CLASSIFICATION_TYPE": "U", "NORAD_CAT_ID": 66916, "ELEMENT_SET_NO": 999, "REV_AT_EPOCH": 61, "BSTAR": 1.5879747e-05, "MEAN_MOTION_DOT": -1.26e-06, "MEAN_MOTION_DDOT": 0}, "tle": {"line1": "1 66916U 25285B   25344.63967615 -.00000126  00000+0  15880-4 0  9996", "line2": "2 66916  50.0045 125.8401 0006966 270.2213  89.7894 14.05512788   612"}}, "geometry": {"type": "Point", "coordinates": [-166.51635302765015, 47.95575022858682]}}, {"type": "Feature", "properties": {"norad_id": 66917, "name": "HULIANWANG DIGUI 14C", "group": "last-30-days", "lat": 48.26446482967253, "lon": -164.84919126554183, "alt_km": 872.8764463868529, "timestamp": "2025-12-10T20:49:51.346314+00:00", "meta": {"OBJECT_NAME": "HULIANWANG DIGUI 14C", "OBJECT_ID": "2025-285C", "EPOCH": "2025-12-10T15:20:49.298208", "MEAN_MOTION": 14.05578852, "ECCENTRICITY": 0.00075384, "INCLINATION": 50.0009, "RA_OF_ASC_NODE": 125.8355, "ARG_OF_PERICENTER": 277.9313, "MEAN_ANOMALY": 82.0737, "EPHEMERIS_TYPE": 0, "CLASSIFICATION_TYPE": "U", "NORAD_CAT_ID": 66917, "ELEMENT_SET_NO": 999, "REV_AT_EPOCH": 61, "BSTAR": -1.110323e-06, "MEAN_MOTION_DOT": -1.54e-06, "MEAN_MOTION_DDOT": 0}, "tle": {"line1": "1 66917U 25285C   25344.63945947 -.00000154  00000+0 -11103-5 0  9998", "line2": "2 66917  50.0009 125.8355 0007538 277.9313  82.0737 14.05578852   618"}}, "geometry": {"type": "Point", "coordinates": [-164.84919126554183, 48.26446482967253]}}, {"type": "Feature", "properties": {"norad_id": 66918, "name": "HULIANWANG DIGUI 14D", "group": "last-30-days", "lat": 48.74110865078412, "lon": -161.96917990291263, "alt_km": 871.8358157634993, "timestamp": "2025-12-10T20:49:51.346324+00:00", "meta": {"OBJECT_NAME": "HULIANWANG DIGUI 14D", "OBJECT_ID": "2025-285D", "EPOCH": "2025-12-10T15:20:17.494368", "MEAN_MOTION": 14.05703412, "ECCENTRICITY": 0.00064659, "INCLINATION": 50.0042, "RA_OF_ASC_NODE": 125.8356, "ARG_OF_PERICENTER": 272.9836, "MEAN_ANOMALY": 87.0329, "EPHEMERIS_TYPE": 0, "CLASSIFICATION_TYPE": "U", "NORAD_CAT_ID": 66918, "ELEMENT_SET_NO": 999, "REV_AT_EPOCH": 61, "BSTAR": 6.96403e-06, "MEAN_MOTION_DOT": -1.41e-06, "MEAN_MOTION_DDOT": 0}, "tle": {"line1": "1 66918U 25285D   25344.63909137 -.00000141  00000+0  69640-5 0  9994", "line2": "2 66918  50.0042 125.8356 0006465 272.9836  87.0329 14.05703412   614"}}, "geometry": {"type": "Point", "coordinates": [-161.96917990291263, 48.74110865078412]}}]}